{
 "type": "FeatureCollection",
 "crs": {
  "type": "name",
  "properties": {
   "name": "EPSG:4326"
  }
 },
 "features": [
  {
   "type": "Feature",
   "properties": {
    "line_id": "m1",
    "ten": "Metro số 1",
    "huong": "Bến Thành – Suối Tiên",
    "trang_thai": "operating",
    "doan": 0,
    "dai_km": 16.92,
    "nguon": "OpenStreetMap · Overpass API",
    "ngay_chup": "2026-07-29"
   },
   "geometry": {
    "type": "LineString",
    "coordinates": [
     [
      106.81582,
      10.88164
     ],
     [
      106.81255,
      10.87728
     ],
     [
      106.81017,
      10.87565
     ],
     [
      106.80613,
      10.87024
     ],
     [
      106.80358,
      10.86782
     ],
     [
      106.77627,
      10.85155
     ],
     [
      106.77476,
      10.85045
     ],
     [
      106.77322,
      10.84886
     ],
     [
      106.77197,
      10.84695
     ],
     [
      106.75911,
      10.824
     ],
     [
      106.75803,
      10.82077
     ],
     [
      106.75597,
      10.81002
     ],
     [
      106.7545,
      10.80729
     ],
     [
      106.7524,
      10.80527
     ],
     [
      106.75122,
      10.80441
     ],
     [
      106.74833,
      10.8033
     ],
     [
      106.72532,
      10.7989
     ],
     [
      106.71776,
      10.7977
     ],
     [
      106.71466,
      10.79537
     ],
     [
      106.71383,
      10.79431
     ],
     [
      106.71354,
      10.79317
     ],
     [
      106.7134,
      10.79033
     ],
     [
      106.71281,
      10.78729
     ],
     [
      106.71235,
      10.78629
     ],
     [
      106.71163,
      10.78549
     ]
    ]
   }
  },
  {
   "type": "Feature",
   "properties": {
    "line_id": "m1",
    "ten": "Metro số 1",
    "huong": "Bến Thành – Suối Tiên",
    "trang_thai": "operating",
    "doan": 1,
    "dai_km": 2.35,
    "nguon": "OpenStreetMap · Overpass API",
    "ngay_chup": "2026-07-29"
   },
   "geometry": {
    "type": "LineString",
    "coordinates": [
     [
      106.69678,
      10.77019
     ],
     [
      106.70175,
      10.7753
     ],
     [
      106.70308,
      10.77642
     ],
     [
      106.71166,
      10.78547
     ]
    ]
   }
  },
  {
   "type": "Feature",
   "properties": {
    "line_id": "m2",
    "ten": "Metro số 2",
    "huong": "Bến Thành – Tham Lương",
    "trang_thai": "construction",
    "doan": 0,
    "dai_km": 10.43,
    "nguon": "OpenStreetMap · Overpass API",
    "ngay_chup": "2026-07-29"
   },
   "geometry": {
    "type": "LineString",
    "coordinates": [
     [
      106.62628,
      10.82555
     ],
     [
      106.62704,
      10.82548
     ],
     [
      106.6299,
      10.82268
     ],
     [
      106.63523,
      10.80564
     ],
     [
      106.63684,
      10.80309
     ],
     [
      106.63865,
      10.80137
     ],
     [
      106.64378,
      10.79805
     ],
     [
      106.69366,
      10.77129
     ],
     [
      106.69766,
      10.77112
     ]
    ]
   }
  },
  {
   "type": "Feature",
   "properties": {
    "line_id": "m2tt",
    "ten": "Metro số 2 (nhánh)",
    "huong": "Bến Thành – Thủ Thiêm",
    "trang_thai": "planned",
    "doan": 0,
    "dai_km": 5.36,
    "nguon": "OpenStreetMap · Overpass API",
    "ngay_chup": "2026-07-29"
   },
   "geometry": {
    "type": "LineString",
    "coordinates": [
     [
      106.74229,
      10.78542
     ],
     [
      106.7407,
      10.78377
     ],
     [
      106.74024,
      10.78252
     ],
     [
      106.73948,
      10.78192
     ],
     [
      106.72348,
      10.77366
     ],
     [
      106.72017,
      10.77223
     ],
     [
      106.71498,
      10.77192
     ],
     [
      106.71299,
      10.77153
     ],
     [
      106.7117,
      10.77088
     ],
     [
      106.71053,
      10.77067
     ],
     [
      106.69766,
      10.77112
     ]
    ]
   }
  },
  {
   "type": "Feature",
   "properties": {
    "line_id": "bd2",
    "ten": "Metro số 2 Thủ Dầu Một",
    "huong": "Thủ Dầu Một – TP.HCM",
    "trang_thai": "preparing",
    "doan": 0,
    "dai_km": 21.78,
    "nguon": "OpenStreetMap · Overpass API",
    "ngay_chup": "2026-07-29"
   },
   "geometry": {
    "type": "LineString",
    "coordinates": [
     [
      106.66887,
      11.00796
     ],
     [
      106.66531,
      11.0032
     ],
     [
      106.66367,
      11.00193
     ],
     [
      106.65978,
      10.9998
     ],
     [
      106.65721,
      10.99738
     ],
     [
      106.6562,
      10.9945
     ],
     [
      106.65628,
      10.99314
     ],
     [
      106.65677,
      10.99288
     ],
     [
      106.66165,
      10.99231
     ],
     [
      106.66255,
      10.99179
     ],
     [
      106.66335,
      10.99095
     ],
     [
      106.66587,
      10.98606
     ],
     [
      106.66742,
      10.98063
     ],
     [
      106.67044,
      10.97443
     ],
     [
      106.67139,
      10.97303
     ],
     [
      106.68195,
      10.96723
     ],
     [
      106.69679,
      10.96022
     ],
     [
      106.69873,
      10.95878
     ],
     [
      106.70518,
      10.95252
     ],
     [
      106.70704,
      10.94929
     ],
     [
      106.71014,
      10.9357
     ],
     [
      106.71327,
      10.92401
     ],
     [
      106.71366,
      10.92174
     ],
     [
      106.71369,
      10.91941
     ],
     [
      106.71258,
      10.90286
     ],
     [
      106.71224,
      10.90189
     ],
     [
      106.71049,
      10.89898
     ],
     [
      106.70563,
      10.89316
     ],
     [
      106.7006,
      10.88769
     ],
     [
      106.69875,
      10.88427
     ],
     [
      106.69844,
      10.88327
     ],
     [
      106.69848,
      10.88196
     ],
     [
      106.69996,
      10.87766
     ],
     [
      106.70077,
      10.876
     ],
     [
      106.70258,
      10.87374
     ],
     [
      106.70425,
      10.87194
     ],
     [
      106.70534,
      10.87129
     ],
     [
      106.71266,
      10.87001
     ],
     [
      106.71698,
      10.8683
     ],
     [
      106.72154,
      10.86809
     ],
     [
      106.72277,
      10.8675
     ],
     [
      106.72397,
      10.86597
     ]
    ]
   }
  },
  {
   "type": "Feature",
   "properties": {
    "line_id": "bd1",
    "ten": "Metro Bình Dương",
    "huong": "Thành phố mới Bình Dương – Suối Tiên",
    "trang_thai": "preparing",
    "doan": 0,
    "dai_km": 28.85,
    "nguon": "OpenStreetMap · Overpass API",
    "ngay_chup": "2026-07-29"
   },
   "geometry": {
    "type": "LineString",
    "coordinates": [
     [
      106.81573,
      10.88168
     ],
     [
      106.81699,
      10.88363
     ],
     [
      106.81734,
      10.88534
     ],
     [
      106.81951,
      10.8883
     ],
     [
      106.82059,
      10.8903
     ],
     [
      106.8205,
      10.89791
     ],
     [
      106.82009,
      10.8986
     ],
     [
      106.81888,
      10.89944
     ],
     [
      106.81247,
      10.90212
     ],
     [
      106.80824,
      10.90335
     ],
     [
      106.80522,
      10.90464
     ],
     [
      106.80286,
      10.90637
     ],
     [
      106.7971,
      10.91214
     ],
     [
      106.7941,
      10.91463
     ],
     [
      106.79287,
      10.91537
     ],
     [
      106.79024,
      10.91655
     ],
     [
      106.78707,
      10.91744
     ],
     [
      106.77827,
      10.91792
     ],
     [
      106.77639,
      10.9184
     ],
     [
      106.775,
      10.9191
     ],
     [
      106.7664,
      10.92503
     ],
     [
      106.76473,
      10.92679
     ],
     [
      106.75866,
      10.93869
     ],
     [
      106.75723,
      10.94056
     ],
     [
      106.75545,
      10.94175
     ],
     [
      106.74047,
      10.94756
     ],
     [
      106.73884,
      10.9486
     ],
     [
      106.70293,
      10.98037
     ],
     [
      106.70048,
      10.98204
     ],
     [
      106.693,
      10.98523
     ],
     [
      106.69184,
      10.98601
     ],
     [
      106.69006,
      10.98768
     ],
     [
      106.68212,
      10.99781
     ],
     [
      106.68104,
      10.99869
     ],
     [
      106.67699,
      11.00121
     ],
     [
      106.67536,
      11.00177
     ],
     [
      106.6752,
      11.00239
     ],
     [
      106.67557,
      11.00378
     ],
     [
      106.67613,
      11.00827
     ],
     [
      106.67622,
      11.01407
     ],
     [
      106.67653,
      11.01748
     ],
     [
      106.68439,
      11.04345
     ],
     [
      106.69422,
      11.05734
     ]
    ]
   }
  },
  {
   "type": "Feature",
   "properties": {
    "line_id": "m6",
    "ten": "Metro số 6",
    "huong": "Phú Hữu – Sân bay Tân Sơn Nhất",
    "trang_thai": "planned",
    "doan": 0,
    "dai_km": 22.83,
    "nguon": "OpenStreetMap · Overpass API",
    "ngay_chup": "2026-07-29"
   },
   "geometry": {
    "type": "LineString",
    "coordinates": [
     [
      106.7995,
      10.79439
     ],
     [
      106.79497,
      10.79489
     ],
     [
      106.7922,
      10.79447
     ],
     [
      106.79168,
      10.79463
     ],
     [
      106.7913,
      10.79504
     ],
     [
      106.79112,
      10.79565
     ],
     [
      106.79135,
      10.79697
     ],
     [
      106.79239,
      10.79859
     ],
     [
      106.79216,
      10.81114
     ],
     [
      106.79177,
      10.81257
     ],
     [
      106.79096,
      10.81835
     ],
     [
      106.78992,
      10.82044
     ],
     [
      106.78164,
      10.8262
     ],
     [
      106.77518,
      10.8324
     ],
     [
      106.77352,
      10.8334
     ],
     [
      106.77106,
      10.83431
     ],
     [
      106.76672,
      10.83552
     ],
     [
      106.76608,
      10.8352
     ],
     [
      106.76458,
      10.83248
     ],
     [
      106.76392,
      10.83197
     ],
     [
      106.76321,
      10.83188
     ],
     [
      106.75308,
      10.83615
     ],
     [
      106.74456,
      10.84082
     ],
     [
      106.74383,
      10.84097
     ],
     [
      106.74217,
      10.84081
     ],
     [
      106.73531,
      10.83891
     ],
     [
      106.73383,
      10.83828
     ],
     [
      106.73168,
      10.83685
     ],
     [
      106.72269,
      10.82949
     ],
     [
      106.72162,
      10.82886
     ],
     [
      106.71759,
      10.82755
     ],
     [
      106.70692,
      10.82506
     ],
     [
      106.70555,
      10.82456
     ],
     [
      106.7028,
      10.82287
     ],
     [
      106.68933,
      10.81926
     ],
     [
      106.68611,
      10.81791
     ],
     [
      106.68197,
      10.81547
     ],
     [
      106.67888,
      10.81405
     ],
     [
      106.67768,
      10.81413
     ],
     [
      106.67631,
      10.81506
     ],
     [
      106.67497,
      10.81546
     ],
     [
      106.67402,
      10.8154
     ],
     [
      106.67093,
      10.81431
     ],
     [
      106.66844,
      10.8141
     ],
     [
      106.66541,
      10.81406
     ],
     [
      106.66332,
      10.81487
     ],
     [
      106.64095,
      10.80853
     ],
     [
      106.63522,
      10.80739
     ],
     [
      106.63503,
      10.80696
     ],
     [
      106.63523,
      10.80564
     ]
    ]
   }
  },
  {
   "type": "Feature",
   "properties": {
    "line_id": "m3",
    "ten": "Metro số 3",
    "huong": "Hiệp Bình Phước – An Hạ",
    "trang_thai": "planned",
    "doan": 0,
    "dai_km": 43.4,
    "nguon": "OpenStreetMap · Overpass API",
    "ngay_chup": "2026-07-29"
   },
   "geometry": {
    "type": "LineString",
    "coordinates": [
     [
      106.72397,
      10.86597
     ],
     [
      106.72512,
      10.86345
     ],
     [
      106.72518,
      10.86263
     ],
     [
      106.72492,
      10.86167
     ],
     [
      106.72175,
      10.85356
     ],
     [
      106.72098,
      10.85213
     ],
     [
      106.71961,
      10.85031
     ],
     [
      106.71864,
      10.84836
     ],
     [
      106.71844,
      10.84724
     ],
     [
      106.71848,
      10.84309
     ],
     [
      106.71821,
      10.84223
     ],
     [
      106.71421,
      10.83709
     ],
     [
      106.71462,
      10.82633
     ],
     [
      106.71249,
      10.81036
     ],
     [
      106.71178,
      10.80778
     ],
     [
      106.71164,
      10.80181
     ],
     [
      106.71124,
      10.79878
     ],
     [
      106.71075,
      10.79683
     ],
     [
      106.70986,
      10.79516
     ],
     [
      106.68273,
      10.76638
     ],
     [
      106.66963,
      10.75759
     ],
     [
      106.66612,
      10.75613
     ],
     [
      106.6529,
      10.75358
     ],
     [
      106.65057,
      10.75344
     ],
     [
      106.63813,
      10.75455
     ],
     [
      106.63506,
      10.75432
     ],
     [
      106.63267,
      10.75281
     ],
     [
      106.62397,
      10.74586
     ],
     [
      106.61567,
      10.73888
     ],
     [
      106.61024,
      10.73028
     ],
     [
      106.60327,
      10.72554
     ],
     [
      106.60142,
      10.7237
     ],
     [
      106.60071,
      10.72165
     ],
     [
      106.5989,
      10.71114
     ],
     [
      106.5985,
      10.71005
     ],
     [
      106.59763,
      10.70941
     ],
     [
      106.58704,
      10.70904
     ],
     [
      106.57377,
      10.71223
     ],
     [
      106.57321,
      10.71328
     ],
     [
      106.57386,
      10.71645
     ],
     [
      106.57381,
      10.71959
     ],
     [
      106.57363,
      10.72043
     ],
     [
      106.57311,
      10.72139
     ],
     [
      106.57233,
      10.72185
     ],
     [
      106.55891,
      10.72405
     ],
     [
      106.55787,
      10.72439
     ],
     [
      106.55253,
      10.72703
     ],
     [
      106.54972,
      10.72901
     ],
     [
      106.52142,
      10.7432
     ],
     [
      106.52073,
      10.744
     ],
     [
      106.52044,
      10.74582
     ],
     [
      106.52065,
      10.74762
     ],
     [
      106.52195,
      10.75127
     ],
     [
      106.52182,
      10.75238
     ],
     [
      106.5213,
      10.75321
     ],
     [
      106.51741,
      10.75526
     ],
     [
      106.51491,
      10.75695
     ],
     [
      106.51127,
      10.75895
     ],
     [
      106.50117,
      10.76373
     ],
     [
      106.50093,
      10.7643
     ],
     [
      106.5014,
      10.7655
     ],
     [
      106.50988,
      10.77202
     ],
     [
      106.51115,
      10.77374
     ],
     [
      106.51196,
      10.7755
     ],
     [
      106.51303,
      10.77933
     ],
     [
      106.51866,
      10.80177
     ]
    ]
   }
  },
  {
   "type": "Feature",
   "properties": {
    "line_id": "m7",
    "ten": "Metro số 7",
    "huong": "Tân Kiên – Vinhomes Grand Park",
    "trang_thai": "planned",
    "doan": 0,
    "dai_km": 48.29,
    "nguon": "OpenStreetMap · Overpass API",
    "ngay_chup": "2026-07-29"
   },
   "geometry": {
    "type": "LineString",
    "coordinates": [
     [
      106.57289,
      10.7093
     ],
     [
      106.57043,
      10.69811
     ],
     [
      106.56954,
      10.69306
     ],
     [
      106.57044,
      10.6907
     ],
     [
      106.57158,
      10.68926
     ],
     [
      106.57318,
      10.68788
     ],
     [
      106.57541,
      10.68662
     ],
     [
      106.57611,
      10.68653
     ],
     [
      106.59314,
      10.68986
     ],
     [
      106.59635,
      10.69094
     ],
     [
      106.62784,
      10.69952
     ],
     [
      106.63084,
      10.70059
     ],
     [
      106.63262,
      10.70159
     ],
     [
      106.65125,
      10.71598
     ],
     [
      106.66332,
      10.71628
     ],
     [
      106.66598,
      10.71537
     ],
     [
      106.67268,
      10.71222
     ],
     [
      106.67519,
      10.71167
     ],
     [
      106.67772,
      10.71157
     ],
     [
      106.67921,
      10.71193
     ],
     [
      106.68185,
      10.71476
     ],
     [
      106.68314,
      10.71504
     ],
     [
      106.6835,
      10.71497
     ],
     [
      106.68448,
      10.71399
     ],
     [
      106.68738,
      10.71239
     ],
     [
      106.68892,
      10.71195
     ],
     [
      106.69049,
      10.71186
     ],
     [
      106.71329,
      10.71776
     ],
     [
      106.71418,
      10.71773
     ],
     [
      106.71643,
      10.71681
     ],
     [
      106.7177,
      10.71656
     ],
     [
      106.7209,
      10.71743
     ],
     [
      106.72375,
      10.7192
     ],
     [
      106.72615,
      10.72095
     ],
     [
      106.72646,
      10.72139
     ],
     [
      106.72107,
      10.73022
     ],
     [
      106.72073,
      10.7311
     ],
     [
      106.72082,
      10.73157
     ],
     [
      106.72214,
      10.73359
     ],
     [
      106.72567,
      10.73345
     ],
     [
      106.72764,
      10.73416
     ],
     [
      106.7294,
      10.73596
     ],
     [
      106.73036,
      10.73728
     ],
     [
      106.73054,
      10.73793
     ],
     [
      106.72898,
      10.74802
     ],
     [
      106.72855,
      10.75357
     ],
     [
      106.72801,
      10.75577
     ],
     [
      106.72685,
      10.76457
     ],
     [
      106.7263,
      10.76474
     ],
     [
      106.72399,
      10.76457
     ],
     [
      106.72182,
      10.76476
     ],
     [
      106.7176,
      10.76607
     ],
     [
      106.71793,
      10.76787
     ],
     [
      106.71662,
      10.77292
     ],
     [
      106.71686,
      10.77508
     ],
     [
      106.71763,
      10.77641
     ],
     [
      106.71903,
      10.7775
     ],
     [
      106.72568,
      10.77909
     ],
     [
      106.72709,
      10.77983
     ],
     [
      106.7284,
      10.78127
     ],
     [
      106.7293,
      10.78372
     ],
     [
      106.73148,
      10.79663
     ],
     [
      106.73198,
      10.79843
     ],
     [
      106.74462,
      10.81571
     ],
     [
      106.74922,
      10.82124
     ],
     [
      106.75085,
      10.82186
     ],
     [
      106.75215,
      10.82194
     ],
     [
      106.75932,
      10.8211
     ],
     [
      106.76818,
      10.81737
     ],
     [
      106.7755,
      10.81464
     ],
     [
      106.77697,
      10.81434
     ],
     [
      106.78009,
      10.81464
     ],
     [
      106.7819,
      10.81506
     ],
     [
      106.78405,
      10.81618
     ],
     [
      106.79196,
      10.82125
     ],
     [
      106.80349,
      10.82954
     ],
     [
      106.8053,
      10.83126
     ],
     [
      106.80796,
      10.8353
     ],
     [
      106.80956,
      10.83726
     ],
     [
      106.81495,
      10.84282
     ],
     [
      106.81569,
      10.84328
     ],
     [
      106.81671,
      10.84343
     ],
     [
      106.81855,
      10.8432
     ],
     [
      106.82074,
      10.84199
     ],
     [
      106.82131,
      10.8405
     ],
     [
      106.82212,
      10.83654
     ],
     [
      106.82255,
      10.83606
     ],
     [
      106.82334,
      10.83577
     ],
     [
      106.8252,
      10.83593
     ],
     [
      106.82863,
      10.8372
     ],
     [
      106.8313,
      10.83866
     ],
     [
      106.83321,
      10.83942
     ],
     [
      106.83546,
      10.83995
     ],
     [
      106.83684,
      10.83985
     ],
     [
      106.84152,
      10.83816
     ],
     [
      106.8461,
      10.83685
     ],
     [
      106.84731,
      10.83683
     ],
     [
      106.85055,
      10.83796
     ]
    ]
   }
  },
  {
   "type": "Feature",
   "properties": {
    "line_id": "tt",
    "ten": "Thủ Thiêm – Long Thành",
    "huong": "Thủ Thiêm – Sân bay Long Thành",
    "trang_thai": "planned",
    "doan": 0,
    "dai_km": 46.02,
    "nguon": "OpenStreetMap · Overpass API",
    "ngay_chup": "2026-07-29"
   },
   "geometry": {
    "type": "LineString",
    "coordinates": [
     [
      107.08578,
      10.80221
     ],
     [
      107.01264,
      10.74974
     ],
     [
      107.00673,
      10.74592
     ],
     [
      107.00342,
      10.74443
     ],
     [
      106.99826,
      10.74346
     ],
     [
      106.99073,
      10.74266
     ],
     [
      106.9839,
      10.74156
     ],
     [
      106.97581,
      10.74114
     ],
     [
      106.9624,
      10.74084
     ],
     [
      106.94123,
      10.73693
     ],
     [
      106.85954,
      10.71821
     ],
     [
      106.85762,
      10.71793
     ],
     [
      106.85548,
      10.71834
     ],
     [
      106.85425,
      10.71904
     ],
     [
      106.85338,
      10.72122
     ],
     [
      106.8519,
      10.73016
     ],
     [
      106.84962,
      10.74854
     ],
     [
      106.84842,
      10.75406
     ],
     [
      106.84633,
      10.75822
     ],
     [
      106.83889,
      10.76773
     ],
     [
      106.83292,
      10.77574
     ],
     [
      106.83153,
      10.77791
     ],
     [
      106.83024,
      10.78075
     ],
     [
      106.83001,
      10.7825
     ],
     [
      106.83023,
      10.78734
     ],
     [
      106.82999,
      10.78812
     ],
     [
      106.82926,
      10.78901
     ],
     [
      106.82438,
      10.79007
     ],
     [
      106.79023,
      10.79584
     ],
     [
      106.78335,
      10.79596
     ],
     [
      106.76781,
      10.79557
     ],
     [
      106.76271,
      10.79497
     ],
     [
      106.75976,
      10.7943
     ],
     [
      106.75684,
      10.79336
     ],
     [
      106.75222,
      10.79146
     ],
     [
      106.7461,
      10.78828
     ],
     [
      106.74434,
      10.78724
     ],
     [
      106.74229,
      10.78542
     ]
    ]
   }
  },
  {
   "type": "Feature",
   "properties": {
    "line_id": "cg",
    "ten": "Bến Thành – Cần Giờ",
    "huong": "Bến Thành – Cần Giờ",
    "trang_thai": "planned",
    "doan": 0,
    "dai_km": 50.56,
    "nguon": "OpenStreetMap · Overpass API",
    "ngay_chup": "2026-07-29"
   },
   "geometry": {
    "type": "LineString",
    "coordinates": [
     [
      106.90825,
      10.39906
     ],
     [
      106.90325,
      10.40168
     ],
     [
      106.90159,
      10.40303
     ],
     [
      106.90019,
      10.40476
     ],
     [
      106.89752,
      10.41152
     ],
     [
      106.89452,
      10.42023
     ],
     [
      106.89284,
      10.42712
     ],
     [
      106.89229,
      10.43104
     ],
     [
      106.89243,
      10.43591
     ],
     [
      106.89195,
      10.44512
     ],
     [
      106.89253,
      10.45379
     ],
     [
      106.89194,
      10.45859
     ],
     [
      106.88898,
      10.46653
     ],
     [
      106.88489,
      10.47252
     ],
     [
      106.87934,
      10.47865
     ],
     [
      106.8735,
      10.48824
     ],
     [
      106.86704,
      10.5012
     ],
     [
      106.86407,
      10.51055
     ],
     [
      106.85792,
      10.52128
     ],
     [
      106.84628,
      10.53196
     ],
     [
      106.83885,
      10.54268
     ],
     [
      106.83481,
      10.55017
     ],
     [
      106.8329,
      10.55512
     ],
     [
      106.83013,
      10.56394
     ],
     [
      106.82504,
      10.58072
     ],
     [
      106.82294,
      10.58874
     ],
     [
      106.81882,
      10.59816
     ],
     [
      106.81634,
      10.60259
     ],
     [
      106.81264,
      10.60812
     ],
     [
      106.79938,
      10.62663
     ],
     [
      106.79228,
      10.63697
     ],
     [
      106.79051,
      10.63998
     ],
     [
      106.78758,
      10.64393
     ],
     [
      106.78344,
      10.64873
     ],
     [
      106.77853,
      10.65249
     ],
     [
      106.75813,
      10.65752
     ],
     [
      106.74931,
      10.66119
     ],
     [
      106.74292,
      10.66605
     ],
     [
      106.7404,
      10.67332
     ],
     [
      106.73696,
      10.67809
     ],
     [
      106.73108,
      10.69433
     ],
     [
      106.73097,
      10.69551
     ],
     [
      106.73232,
      10.70486
     ],
     [
      106.73134,
      10.71316
     ],
     [
      106.72118,
      10.72985
     ],
     [
      106.72078,
      10.73218
     ],
     [
      106.72164,
      10.73574
     ],
     [
      106.72179,
      10.74622
     ],
     [
      106.7223,
      10.74989
     ],
     [
      106.72157,
      10.7533
     ],
     [
      106.71991,
      10.75534
     ],
     [
      106.71695,
      10.75752
     ],
     [
      106.70924,
      10.762
     ],
     [
      106.70701,
      10.76283
     ],
     [
      106.70516,
      10.7638
     ],
     [
      106.70235,
      10.76575
     ],
     [
      106.69983,
      10.76608
     ],
     [
      106.69888,
      10.76668
     ],
     [
      106.69584,
      10.7701
     ],
     [
      106.69491,
      10.76985
     ]
    ]
   }
  },
  {
   "type": "Feature",
   "properties": {
    "line_id": "cg",
    "ten": "Bến Thành – Cần Giờ",
    "huong": "Bến Thành – Cần Giờ",
    "trang_thai": "planned",
    "doan": 1,
    "dai_km": 2.46,
    "nguon": "OpenStreetMap · Overpass API",
    "ngay_chup": "2026-07-29"
   },
   "geometry": {
    "type": "LineString",
    "coordinates": [
     [
      106.93269,
      10.3939
     ],
     [
      106.92668,
      10.39103
     ],
     [
      106.92476,
      10.391
     ],
     [
      106.92278,
      10.39155
     ],
     [
      106.91734,
      10.39457
     ],
     [
      106.91235,
      10.39698
     ]
    ]
   }
  }
 ]
}
